0 CZ-4 DEB
1 26175U 99057BM  13281.13511811  .00000297  00000-0  22982-3 0  1690
2 26175 098.8358 039.6659 0341258 306.2856 178.3118 13.75687457681057
0 CZ-4 DEB
1 26175U 99057BM  13283.29787065  .00000308  00000-0  23712-3 0  1702
2 26175 098.8362 041.6763 0341271 300.4878 089.3144 13.75690070681343
0 CZ-4 DEB
1 26175U 99057BM  13285.33216469  .00000303  00000-0  23398-3 0  1710
2 26175 098.8366 043.5674 0341270 295.0353 084.1439 13.75691281681621
0 CZ-4 DEB
1 26175U 99057BM  13287.89829457  .00000507  00000-0  37213-3 0  1728
2 26175 098.8372 045.9531 0341324 288.1588 192.9001 13.75693612681981
0 CZ-4 DEB
1 26175U 99057BM  13289.93550684  .00000469  00000-0  34622-3 0  1737
2 26175 098.8374 047.8472 0341338 282.6995 202.2113 13.75695366682263
0 CZ-4 DEB
1 26175U 99057BM  13292.85280058  .00000570  00000-0  41461-3 0  1740
2 26175 098.8373 050.5597 0341391 274.8849 250.1530 13.75697924682662
0 CZ-4 DEB
1 26175U 99057BM  13294.88030782  .00000627  00000-0  45261-3 0  1758
2 26175 098.8373 052.4449 0341398 269.4538 211.4299 13.75700212682949
